[{"OBJECT_NAME":"STARLINK-30472","OBJECT_ID":"2023-146L","EPOCH":"2026-03-09T01:39:16.370208","MEAN_MOTION":15.2671741,"ECCENTRICITY":0.00019725,"INCLINATION":43.0003,"RA_OF_ASC_NODE":314.091,"ARG_OF_PERICENTER":252.9974,"MEAN_ANOMALY":107.0662,"EPHEMERIS_TYPE":0,"CLASSIFICATION_TYPE":"U","NORAD_CAT_ID":57901,"ELEMENT_SET_NO":999,"REV_AT_EPOCH":13594,"BSTAR":-0.00021381266,"MEAN_MOTION_DOT":-5.987e-5,"MEAN_MOTION_DDOT":0},{"OBJECT_NAME":"TRANSPORTER-1 OBJECT Z","OBJECT_ID":"2021-006Z","EPOCH":"2026-03-09T22:55:57.522432","MEAN_MOTION":15.30965056,"ECCENTRICITY":0.00100878,"INCLINATION":97.2377,"RA_OF_ASC_NODE":113.4736,"ARG_OF_PERICENTER":179.6869,"MEAN_ANOMALY":180.438,"EPHEMERIS_TYPE":0,"CLASSIFICATION_TYPE":"U","NORAD_CAT_ID":47436,"ELEMENT_SET_NO":999,"REV_AT_EPOCH":28420,"BSTAR":0.00024088983,"MEAN_MOTION_DOT":7.143e-5,"MEAN_MOTION_DDOT":0}]
